[{"OBJECT_NAME":"STARLINK-30712","OBJECT_ID":"2023-148A","EPOCH":"2026-03-09T22:00:01.999584","MEAN_MOTION":15.30193659,"ECCENTRICITY":0.00010393,"INCLINATION":53.1615,"RA_OF_ASC_NODE":23.1448,"ARG_OF_PERICENTER":101.5333,"MEAN_ANOMALY":70.6949,"EPHEMERIS_TYPE":0,"CLASSIFICATION_TYPE":"U","NORAD_CAT_ID":57935,"ELEMENT_SET_NO":999,"REV_AT_EPOCH":586,"BSTAR":0.00078884182,"MEAN_MOTION_DOT":0.00023072,"MEAN_MOTION_DDOT":0},{"OBJECT_NAME":"TIANMU-1 20","OBJECT_ID":"2023-208B","EPOCH":"2026-03-09T21:50:45.859200","MEAN_MOTION":15.31029249,"ECCENTRICITY":0.00061925,"INCLINATION":97.4323,"RA_OF_ASC_NODE":185.4313,"ARG_OF_PERICENTER":324.1763,"MEAN_ANOMALY":35.9062,"EPHEMERIS_TYPE":0,"CLASSIFICATION_TYPE":"U","NORAD_CAT_ID":58661,"ELEMENT_SET_NO":999,"REV_AT_EPOCH":12222,"BSTAR":0.0003681641,"MEAN_MOTION_DOT":0.00010969,"MEAN_MOTION_DDOT":0}]
